#aV2014  2  4  0  0  0.00000000     288 DD+AD WGS84 FIT  NGA
## 1778 172800.00000000   300.00000000 56692 0.0000000000000
+   32     1  2  3  4  5  6  7  8  9 10 11 12 13 14 15 16 17
+         18 19 20 21 22 23 24 25 26 27 28 29 30 31 32  0  0
+          0  0  0  0  0  0  0  0  0  0  0  0  0  0  0  0  0
+          0  0  0  0  0  0  0  0  0  0  0  0  0  0  0  0  0
+          0  0  0  0  0  0  0  0  0  0  0  0  0  0  0  0  0
++         2  2  2  2  2  2  2  2  2  2  2  2  2  2  2  2  2
++         2  2  2  2  2  2  2  2  2  2  2  2  2  2  2  0  0
++         0  0  0  0  0  0  0  0  0  0  0  0  0  0  0  0  0
++         0  0  0  0  0  0  0  0  0  0  0  0  0  0  0  0  0
++         0  0  0  0  0  0  0  0  0  0  0  0  0  0  0  0  0
%c cc cc ccc ccc cccc cccc cccc cccc ccccc ccccc ccccc ccccc
%c cc cc ccc ccc cccc cccc cccc cccc ccccc ccccc ccccc ccccc
%f  0.0000000  0.000000000  0.00000000000  0.000000000000000
%f  0.0000000  0.000000000  0.00000000000  0.000000000000000
%i    0    0    0    0      0      0      0      0         0
%i    0    0    0    0      0      0      0      0         0
/*      NGA, ST. LOUIS,MO.                                  
/*   EPHEMERIS COMPUTED FROM  1 DAYS OF DATA                
/*   EPOCHA SMOOTHER                                       
/* CCCCCCCCCCCCCCCCCCCCCCCCCCCCCCCCCCCCCCCCCCCCCCCCCCCCCCCCC
*  2014  2  4  0 30  0.00000000
P  1 -17227.538766 -13314.813197 -15326.199661     -2.867550                    
V  1  19428.476144    881.659514 -22535.441845      0.022394                    
P  2  -5500.146059  15080.702197  21367.928599    476.599712                    
V  2 -26408.870475  -3811.267795  -4663.955161      0.021791                    
P  3   4715.906653 -24063.355412 -10532.884509    321.141875                    
V  3   8960.352220  -9520.863804  27329.151789      0.048974                    
P  4 -21381.484670   7352.877468  13819.274626      5.297586                    
V  4 -17520.184222  -4973.040095 -23689.594775      0.003464                    
P  5    706.089856  23790.876987  11582.400614   -389.954675                    
V  5  -8262.538981 -12673.729121  26595.640564      0.014684                    
P  6  12565.688076 -22894.416115  -3384.135477    262.007385                    
V  6   5523.616406  -1593.756532  31234.934619      0.147471                    
P  7 -25925.502841  -6032.300113   2583.178111    310.012947                    
V  7   3458.980234  -1553.029160  31623.198696      0.041292                    
P  8 -25282.358608   -760.736510  -8912.320082     11.734279                    
V  8 -10655.369407  -3936.083357  29485.618411      0.002087                    
P  9 -24714.650340   3174.855389  -9946.260024    302.923464                    
V  9 -11436.458044  -3291.125871  28763.283531      0.027139                    
P 10 -12897.180299   9019.822457  21020.560156   -112.812279                    
V 10 -10629.888770 -25470.880255   4758.952672     -0.015733                    
P 11 -10163.141664 -14768.933695 -20125.639180   -461.275896                    
V 11  24224.387074  -5416.658930  -8237.323230     -0.032575                    
P 12  11452.978381  23737.211155   4090.971885    184.268859                    
V 12     84.396557   5512.285556 -31613.693914      0.023144                    
P 13 -16289.568692  -3128.885311  20642.217035     33.198637                    
V 13  17854.378471 -19505.416559  10919.029939     -0.038416                    
P 14  20844.617404 -12726.784889 -10047.136963    201.185623                    
V 14  -7055.897308  11292.987583 -28481.025596     -0.031047                    
P 15   1982.217198  19507.802645 -17832.778998   -161.207020                    
V 15 -15089.414135  17129.899061  17395.610409     -0.020694                    
P 16    -65.458826 -23747.067989  11491.967145   -232.909065                    
V 16   6601.832645  13310.146923  27806.231891      0.014436                    
P 17 -20320.162834  13977.463925  -9292.475396    -65.163000                    
V 17   5948.490644 -10981.746007 -28991.438939     -0.034064                    
P 18  17765.852606   8846.390236 -17373.272410    299.895467                    
V 18   6736.491127  21996.071440  17319.839791      0.022031                    
P 19    922.993267 -19294.108738 -18154.749392   -436.575129                    
V 19  17008.636428 -15512.867086  17900.137858     -0.024914                    
P 20 -14655.928699 -21492.204959   5357.221636    158.633781                    
V 20    338.268855  -7978.270837 -29935.284451      0.032720                    
P 21  26312.438759   5034.110313   1951.588910   -341.985117                    
V 21  -2154.692477   2991.505393  30681.838269     -0.021824                    
P 22  15147.640570  -4980.186176 -21048.934279    211.043187                    
V 22  10249.000330  25341.110035   1212.558336      0.025211                    
P 23  -8690.144646 -13361.384020  21284.865278      6.982912                    
V 23  17393.057130 -20535.265117  -6215.382188     -0.032685                    
P 24  12541.119154  14633.507853 -18322.670906    -22.707440                    
V 24 -23225.495364  -1504.508841 -17021.762592     -0.006538                    
P 25  16681.194411  14659.884103  14603.944790     12.771011                    
V 25   5444.087732  17830.879236 -23903.942862      0.019720                    
P 26 -10444.917015  21883.569661 -11108.314573    175.281312                    
V 26 -10624.378163   8131.978571  27953.066333     -0.109213                    
P 27  11213.830330 -22875.491758  -7450.219239    -17.437391                    
V 27   7889.583781  -5855.183538  29893.576561     -0.014382                    
P 28 -14790.133435    619.621369 -21462.641778    329.787273                    
V 28  -8771.482204 -27253.534538   4976.684370      0.029169                    
P 29  14494.056233   5865.493749  21509.697117    508.260571                    
V 29 -17437.469147  20866.401191   6113.034746      0.027222                    
P 30  10502.757762 -11979.828149  21055.121412   -154.684875                    
V 30  10489.719451  24986.127510   9121.747567      0.007235                    
P 31  18608.929107  -8576.544751  17234.880578    332.955048                    
V 31  20902.524376   4736.307211 -20102.831558      0.002636                    
P 32  -4974.608759 -26065.279040  -4045.469261   -491.491374                    
V 32   4117.923587   4126.099244 -30564.371563      0.060982                    
EOF
